CTC1_L_00571001-01
1 48366U 24352US  26070.40840278  .00000000  00000+0  00000-0 0  9990
2 48366  41.5000   0.0000 0000000   0.0000   0.0000 15.80155680    19
CTC1_L_00571001-02
1 48367U 23935DJ  26070.40840278  .00000000  00000+0  00000-0 0  9997
2 48367  41.5000   0.0000 0000000   0.0000 180.0000 15.80155680    19
CTC1_L_00571002-01
1 48368U 26842VV  26070.40840278  .00000000  00000+0  00000-0 0  9998
2 48368  41.5000  12.0000 0000000   0.0000  24.0000 15.80155680    10
CTC1_L_00571002-02
1 48369U 25883Y   26070.40840278  .00000000  00000+0  00000-0 0  9993
2 48369  41.5000  12.0000 0000000   0.0000 204.0000 15.80155680    11
CTC1_L_00571003-01
1 48370U 22797ZH  26070.40840278  .00000000  00000+0  00000-0 0  9996
2 48370  41.5000  24.0000 0000000   0.0000  48.0000 15.80155680    12
CTC1_L_00571003-02
1 48371U 25602OM  26070.40840278  .00000000  00000+0  00000-0 0  9995
2 48371  41.5000  24.0000 0000000   0.0000 228.0000 15.80155680    13
CTC1_L_00571004-01
1 48372U 22097KV  26070.40840278  .00000000  00000+0  00000-0 0  9991
2 48372  41.5000  36.0000 0000000   0.0000  72.0000 15.80155680    14
CTC1_L_00571004-02
1 48373U 23367NJ  26070.40840278  .00000000  00000+0  00000-0 0  9993
2 48373  41.5000  36.0000 0000000   0.0000 252.0000 15.80155680    15
CTC1_L_00571005-01
1 48374U 23459W   26070.40840278  .00000000  00000+0  00000-0 0  9996
2 48374  41.5000  48.0000 0000000   0.0000  96.0000 15.80155680    15
CTC1_L_00571005-02
1 48375U 25702RK  26070.40840278  .00000000  00000+0  00000-0 0  9990
2 48375  41.5000  48.0000 0000000   0.0000 276.0000 15.80155680    16
CTC1_L_00571006-01
1 48376U 26245KP  26070.40840278  .00000000  00000+0  00000-0 0  9994
2 48376  41.5000  60.0000 0000000   0.0000 120.0000 15.80155680    19
CTC1_L_00571006-02
1 48377U 23252KW  26070.40840278  .00000000  00000+0  00000-0 0  9990
2 48377  41.5000  60.0000 0000000   0.0000 300.0000 15.80155680    10
CTC1_L_00571007-01
1 48378U 23987OO  26070.40840278  .00000000  00000+0  00000-0 0  9996
2 48378  41.5000  72.0000 0000000   0.0000 144.0000 15.80155680    10
CTC1_L_00571007-02
1 48379U 22635IW  26070.40840278  .00000000  00000+0  00000-0 0  9996
2 48379  41.5000  72.0000 0000000   0.0000 324.0000 15.80155680    11
CTC1_L_00571008-01
1 48380U 23208AX  26070.40840278  .00000000  00000+0  00000-0 0  9995
2 48380  41.5000  84.0000 0000000   0.0000 168.0000 15.80155680    12
CTC1_L_00571008-02
1 48381U 24943FU  26070.40840278  .00000000  00000+0  00000-0 0  9993
2 48381  41.5000  84.0000 0000000   0.0000 348.0000 15.80155680    13
CTC1_L_00571009-01
1 48382U 26357X   26070.40840278  .00000000  00000+0  00000-0 0  9995
2 48382  41.5000  96.0000 0000000   0.0000 192.0000 15.80155680    14
CTC1_L_00571009-02
1 48383U 24598XK  26070.40840278  .00000000  00000+0  00000-0 0  9991
2 48383  41.5000  96.0000 0000000   0.0000  12.0000 15.80155680    16
CTC1_L_00571010-01
1 48384U 25325OE  26070.40840278  .00000000  00000+0  00000-0 0  9991
2 48384  41.5000 108.0000 0000000   0.0000 216.0000 15.80155680    17
CTC1_L_00571010-02
1 48385U 25780MA  26070.40840278  .00000000  00000+0  00000-0 0  9997
2 48385  41.5000 108.0000 0000000   0.0000  36.0000 15.80155680    18
CTC1_L_00571011-01
1 48386U 25588QI  26070.40840278  .00000000  00000+0  00000-0 0  9994
2 48386  41.5000 120.0000 0000000   0.0000 240.0000 15.80155680    10
CTC1_L_00571011-02
1 48387U 23315WY  26070.40840278  .00000000  00000+0  00000-0 0  9991
2 48387  41.5000 120.0000 0000000   0.0000  60.0000 15.80155680    11
CTC1_L_00571012-01
1 48388U 25621DZ  26070.40840278  .00000000  00000+0  00000-0 0  9994
2 48388  41.5000 132.0000 0000000   0.0000 264.0000 15.80155680    11
CTC1_L_00571012-02
1 48389U 26268SW  26070.40840278  .00000000  00000+0  00000-0 0  9993
2 48389  41.5000 132.0000 0000000   0.0000  84.0000 15.80155680    12
CTC1_L_00571013-01
1 48390U 23124K   26070.40840278  .00000000  00000+0  00000-0 0  9993
2 48390  41.5000 144.0000 0000000   0.0000 288.0000 15.80155680    13
CTC1_L_00571013-02
1 48391U 24068IH  26070.40840278  .00000000  00000+0  00000-0 0  9992
2 48391  41.5000 144.0000 0000000   0.0000 108.0000 15.80155680    15
CTC1_L_00571014-01
1 48392U 22369SV  26070.40840278  .00000000  00000+0  00000-0 0  9995
2 48392  41.5000 156.0000 0000000   0.0000 312.0000 15.80155680    16
CTC1_L_00571014-02
1 48393U 24387XI  26070.40840278  .00000000  00000+0  00000-0 0  9998
2 48393  41.5000 156.0000 0000000   0.0000 132.0000 15.80155680    17
CTC1_L_00571015-01
1 48394U 24283RW  26070.40840278  .00000000  00000+0  00000-0 0  9994
2 48394  41.5000 168.0000 0000000   0.0000 336.0000 15.80155680    17
CTC1_L_00571015-02
1 48395U 25382OM  26070.40840278  .00000000  00000+0  00000-0 0  9996
2 48395  41.5000 168.0000 0000000   0.0000 156.0000 15.80155680    18
CTC1_L_00571016-01
1 48396U 25898NG  26070.40840278  .00000000  00000+0  00000-0 0  9999
2 48396  41.5000 180.0000 0000000   0.0000   0.0000 15.80155680    11
CTC1_L_00571016-02
1 48397U 23892YO  26070.40840278  .00000000  00000+0  00000-0 0  9992
2 48397  41.5000 180.0000 0000000   0.0000 180.0000 15.80155680    11
CTC1_L_00571017-01
1 48398U 25690HB  26070.40840278  .00000000  00000+0  00000-0 0  9991
2 48398  41.5000 192.0000 0000000   0.0000  24.0000 15.80155680    12
CTC1_L_00571017-02
1 48399U 24694MO  26070.40840278  .00000000  00000+0  00000-0 0  9995
2 48399  41.5000 192.0000 0000000   0.0000 204.0000 15.80155680    13
CTC1_L_00571018-01
1 48400U 25018CJ  26070.40840278  .00000000  00000+0  00000-0 0  9999
2 48400  41.5000 204.0000 0000000   0.0000  48.0000 15.80155680    16
CTC1_L_00571018-02
1 48401U 22589UR  26070.40840278  .00000000  00000+0  00000-0 0  9990
2 48401  41.5000 204.0000 0000000   0.0000 228.0000 15.80155680    17
CTC1_L_00571019-01
1 48402U 25200OB  26070.40840278  .00000000  00000+0  00000-0 0  9994
2 48402  41.5000 216.0000 0000000   0.0000  72.0000 15.80155680    18
CTC1_L_00571019-02
1 48403U 22497IY  26070.40840278  .00000000  00000+0  00000-0 0  9990
2 48403  41.5000 216.0000 0000000   0.0000 252.0000 15.80155680    19
CTC1_L_00571020-01
1 48404U 22163GF  26070.40840278  .00000000  00000+0  00000-0 0  9991
2 48404  41.5000 228.0000 0000000   0.0000  96.0000 15.80155680    19
CTC1_L_00571020-02
1 48405U 22370KN  26070.40840278  .00000000  00000+0  00000-0 0  9992
2 48405  41.5000 228.0000 0000000   0.0000 276.0000 15.80155680    10
CTC1_L_00571021-01
1 48406U 25640IA  26070.40840278  .00000000  00000+0  00000-0 0  9996
2 48406  41.5000 240.0000 0000000   0.0000 120.0000 15.80155680    13
CTC1_L_00571021-02
1 48407U 26749UH  26070.40840278  .00000000  00000+0  00000-0 0  9998
2 48407  41.5000 240.0000 0000000   0.0000 300.0000 15.80155680    14
CTC1_L_00571022-01
1 48408U 24573ZE  26070.40840278  .00000000  00000+0  00000-0 0  9992
2 48408  41.5000 252.0000 0000000   0.0000 144.0000 15.80155680    14
CTC1_L_00571022-02
1 48409U 25573FV  26070.40840278  .00000000  00000+0  00000-0 0  9994
2 48409  41.5000 252.0000 0000000   0.0000 324.0000 15.80155680    15
CTC1_L_00571023-01
1 48410U 25843ZX  26070.40840278  .00000000  00000+0  00000-0 0  9996
2 48410  41.5000 264.0000 0000000   0.0000 168.0000 15.80155680    16
CTC1_L_00571023-02
1 48411U 23832ML  26070.40840278  .00000000  00000+0  00000-0 0  9993
2 48411  41.5000 264.0000 0000000   0.0000 348.0000 15.80155680    17
CTC1_L_00571024-01
1 48412U 26256XF  26070.40840278  .00000000  00000+0  00000-0 0  9997
2 48412  41.5000 276.0000 0000000   0.0000 192.0000 15.80155680    18
CTC1_L_00571024-02
1 48413U 26533IA  26070.40840278  .00000000  00000+0  00000-0 0  9996
2 48413  41.5000 276.0000 0000000   0.0000  12.0000 15.80155680    10
CTC1_L_00571025-01
1 48414U 22791A   26070.40840278  .00000000  00000+0  00000-0 0  9999
2 48414  41.5000 288.0000 0000000   0.0000 216.0000 15.80155680    10
CTC1_L_00571025-02
1 48415U 24984EM  26070.40840278  .00000000  00000+0  00000-0 0  9996
2 48415  41.5000 288.0000 0000000   0.0000  36.0000 15.80155680    11
CTC1_L_00571026-01
1 48416U 22066IW  26070.40840278  .00000000  00000+0  00000-0 0  9996
2 48416  41.5000 300.0000 0000000   0.0000 240.0000 15.80155680    14
CTC1_L_00571026-02
1 48417U 22619TG  26070.40840278  .00000000  00000+0  00000-0 0  9991
2 48417  41.5000 300.0000 0000000   0.0000  60.0000 15.80155680    15
CTC1_L_00571027-01
1 48418U 26383CA  26070.40840278  .00000000  00000+0  00000-0 0  9994
2 48418  41.5000 312.0000 0000000   0.0000 264.0000 15.80155680    15
CTC1_L_00571027-02
1 48419U 22398SC  26070.40840278  .00000000  00000+0  00000-0 0  9997
2 48419  41.5000 312.0000 0000000   0.0000  84.0000 15.80155680    16
CTC1_L_00571028-01
1 48420U 26748CG  26070.40840278  .00000000  00000+0  00000-0 0  9992
2 48420  41.5000 324.0000 0000000   0.0000 288.0000 15.80155680    17
CTC1_L_00571028-02
1 48421U 26774JO  26070.40840278  .00000000  00000+0  00000-0 0  9992
2 48421  41.5000 324.0000 0000000   0.0000 108.0000 15.80155680    19
CTC1_L_00571029-01
1 48422U 25821ME  26070.40840278  .00000000  00000+0  00000-0 0  9995
2 48422  41.5000 336.0000 0000000   0.0000 312.0000 15.80155680    10
CTC1_L_00571029-02
1 48423U 25393UD  26070.40840278  .00000000  00000+0  00000-0 0  9990
2 48423  41.5000 336.0000 0000000   0.0000 132.0000 15.80155680    11
CTC1_L_00571030-01
1 48424U 26423AA  26070.40840278  .00000000  00000+0  00000-0 0  9996
2 48424  41.5000 348.0000 0000000   0.0000 336.0000 15.80155680    11
CTC1_L_00571030-02
1 48425U 23249BI  26070.40840278  .00000000  00000+0  00000-0 0  9990
2 48425  41.5000 348.0000 0000000   0.0000 156.0000 15.80155680    12
